[{"OBJECT_NAME":"DONGPO 03","OBJECT_ID":"2022-098G","EPOCH":"2026-03-09T23:33:34.890048","MEAN_MOTION":15.70958192,"ECCENTRICITY":0.00010558,"INCLINATION":97.5452,"RA_OF_ASC_NODE":197.1326,"ARG_OF_PERICENTER":261.4023,"MEAN_ANOMALY":98.7119,"EPHEMERIS_TYPE":0,"CLASSIFICATION_TYPE":"U","NORAD_CAT_ID":53450,"ELEMENT_SET_NO":999,"REV_AT_EPOCH":19946,"BSTAR":0.0010143925,"MEAN_MOTION_DOT":0.00128253,"MEAN_MOTION_DDOT":0},{"OBJECT_NAME":"STARLINK-11186 [DTC]","OBJECT_ID":"2024-113M","EPOCH":"2026-03-09T14:22:39.647136","MEAN_MOTION":15.6968196,"ECCENTRICITY":9.2e-5,"INCLINATION":53.1587,"RA_OF_ASC_NODE":191.8979,"ARG_OF_PERICENTER":96.2443,"MEAN_ANOMALY":263.868,"EPHEMERIS_TYPE":0,"CLASSIFICATION_TYPE":"U","NORAD_CAT_ID":60070,"ELEMENT_SET_NO":999,"REV_AT_EPOCH":9995,"BSTAR":-2.4701e-5,"MEAN_MOTION_DOT":-3.576e-5,"MEAN_MOTION_DDOT":0}]
